SAUDISAT 5A             
1 43831U 18102A   20077.61494822 -.00000059  00000-0  27989-6 0  9999
2 43831  97.5765 154.9449 0016301 109.2530  26.8213 15.08008871 70295
2018-102B               
1 43832U 18102B   20079.32615249  .00000500  00000-0  35616-4 0  9992
2 43832  97.5794 157.1863 0016674 108.9331 320.2395 15.08952939 70577
SAUDISAT 5B             
1 43833U 18102C   20076.68688611 -.00000047  00000-0  10623-5 0  9991
2 43833  97.5767 154.3335 0017093 119.2669  34.4642 15.08448321 70165
2018-102D               
1 43834U 18102D   20079.34657058  .00000253  00000-0  20172-4 0  9996
2 43834  97.5785 157.1162 0016220 112.3501 312.2987 15.08619885 70596
2018-102E               
1 43835U 18102E   20079.37092688  .00000313  00000-0  23856-4 0  9991
2 43835  97.5770 157.2282 0016628 111.6347 318.3040 15.08853555 70600
2018-102F               
1 43836U 18102F   20079.21046398  .00000784  00000-0  53555-4 0  9993
2 43836  97.5804 157.2644 0017058 114.0921 301.7244 15.08961982 70565
2018-102G               
1 43837U 18102G   20079.32423942 -.00000005  00000-0  37110-5 0  9997
2 43837  97.5786 157.5108 0016853 116.6201 332.4623 15.09243876 70595
2018-102H               
1 43838U 18102H   20077.33256733 -.00000025  00000-0  24135-5 0  9994
2 43838  97.5775 155.4474 0018575 123.7157 324.1148 15.09230595 70290
2018-102J               
1 43839U 18102J   20079.32860341  .00000167  00000-0  14404-4 0  9995
2 43839  97.5886 158.2258 0018269 119.8732 309.9461 15.09425960 70617
2018-102K               
1 43840U 18102K   20079.16381008  .00001020  00000-0  67146-4 0  9997
2 43840  97.5763 157.4027 0018215 120.0965 325.7430 15.09638584 70587
2018-102L               
1 43841U 18102L   20079.35372392  .00001203  00000-0  78637-4 0  9995
2 43841  97.5855 158.1415 0018195 121.6326 306.1849 15.09594380 70610
2018-102M               
1 43842U 18102M   20078.84835897  .00000300  00000-0  22297-4 0  9991
2 43842  97.5425 155.4665 0009947 143.7601 313.7986 15.10078571 70557
TOMSAT R3 (AEROCUBE 11B)
1 43849U 18104A   20079.43820801  .00000919  00000-0  38079-4 0  9996
2 43849  85.0334 234.9263 0019545  44.2510 316.0287 15.22169003 69834
SHIELDS 1               
1 43850U 18104B   20078.43253796  .00000042  00000-0  00000+0 0  9995
2 43850  85.0274 235.4968 0016785  50.9707 309.3127 15.21301984 69633
ELECTRON KICK STAGE R/B 
1 43851U 18104C   20078.54092761  .00001504  00000-0  62751-4 0  9991
2 43851  85.0325 235.4160 0018204  40.1134 320.1439 15.22590802 69691
STF-1                   
1 43852U 18104D   20077.71287239  .00000042  00000-0  00000+0 0  9996
2 43852  85.0336 236.4494 0016507  66.0717 294.2361 15.21085598 69508
2018-104E               
1 43853U 18104E   20079.36997149  .00000043  00000-0  00000+0 0  9999
2 43853  85.0320 234.2859 0018518  38.6253 321.6514 15.23926967 69845
2018-104F               
1 43854U 18104F   20079.40221383  .00000042  00000-0  00000+0 0  9994
2 43854  85.0278 234.2443 0018935  32.9536 327.3038 15.23026716 69815
CHOMPTT                 
1 43855U 18104G   20078.89042054  .00000993  00000-0  40533-4 0  9998
2 43855  85.0353 235.0927 0018950  31.7051 328.5329 15.22810247 69749
ISX (CP11)              
1 43856U 18104H   20078.41686949  .00000041  00000-0  00000+0 0  9998
2 43856  85.0299 236.1345 0016834  67.5383 292.7777 15.20666067 69600
DAVINCI                 
1 43857U 18104J   20077.74101979  .00000042  00000-0  00000+0 0  9990
2 43857  85.0292 236.0705 0017966  58.0576 302.2480 15.22344415 69542
2018-104K               
1 43858U 18104K   20077.73851233  .00000042  00000-0  00000+0 0  9995
2 43858  85.0300 236.2047 0018418  58.0010 302.3034 15.21364187 69521
2018-104L               
1 43859U 18104L   20078.90855635  .00000472  00000-0  19165-4 0  9990
2 43859  85.0286 235.2529 0015434  49.4471 310.8112 15.21415293 69705
SHFT 1 (GOERGEN)        
1 43860U 18104M   20079.41851746  .00000042  00000-0  00000+0 0  9994
2 43860  85.0319 234.8845 0014253  45.9505 314.3098 15.22900320 69812
TOMSAT EAGLESCOUT       
1 43861U 18104N   20078.43497591  .00000042  00000-0  00000+0 0  9990
2 43861  85.0415 236.1606 0017972  49.8267 310.4684 15.21971415 69651
GSAT-7A                 
1 43864U 18105A   20078.18035365  .00000004  00000-0  00000+0 0  9991
2 43864   0.0202 242.3713 0001089 150.3111 271.2140  1.00271268  4595
COSMOS 2533             
1 43867U 18107A   20078.75483580 -.00000061  00000-0  00000+0 0  9999
2 43867   0.0162 132.4881 0000576 274.4485 111.5369  1.00272117  4559
HONGYUN 1               
1 43871U 18108A   20079.32498010  .00000019  00000-0  10000-3 0  9990
2 43871  99.9199  92.2515 0011492 253.0912 106.8958 13.50538915 61198
NAVSTAR 77 (USA 289)    
1 43873U 18109A   20077.64655546 -.00000043  00000-0  00000+0 0  9998
2 43873  55.0020 182.3282 0007459 222.6352 231.4687  2.00559173  9240
TJS-3                   
1 43874U 18110A   20078.56782892 -.00000020  00000-0  00000+0 0  9993
2 43874   0.0289 136.4070 0002701  87.2705 330.3565  1.00268673  4605
KANOPUS-V 5             
1 43876U 18111A   20079.18593965  .00000204  00000-0  12921-4 0  9999
2 43876  97.4495 348.6072 0001342  73.2922 286.8460 15.19121621 65995
KANOPUS-V 6             
1 43877U 18111B   20079.22520981  .00000162  00000-0  10903-4 0  9994
2 43877  97.4493 348.6905 0001350  42.9652 317.1688 15.19141048 65996
ISAT                    
1 43879U 18111D   20079.21413746  .00000531  00000-0  52191-4 0  9990
2 43879  97.7073 348.0733 0013058 179.8364 180.2864 14.96173222 64993
UWE-4                   
1 43880U 18111E   20078.47323154  .00000189  00000-0  21761-4 0  9990
2 43880  97.7082 347.5668 0012130 183.3329 176.7814 14.96406564 64899
D-STAR ONE (SPARROW)    
1 43881U 18111F   20078.79326183 -.00000170  00000-0 -98701-5 0  9992
2 43881  97.7090 347.9401 0012162 180.6545 179.4663 14.96465750 64932
LEMUR-2-CHRISTINAHOLT   
1 43882U 18111G   20079.18300317 -.00000038  00000-0  17297-5 0  9991
2 43882  97.7107 348.5459 0011447 178.5521 181.5736 14.96798362 65009
LEMUR-2-TINYKEV         
1 43883U 18111H   20078.76611120  .00001067  00000-0  98077-4 0  9998
2 43883  97.7106 348.1822 0011656 178.8128 181.3123 14.96855817 64946
LEMUR-2-REMY-COLTON     
1 43884U 18111J   20079.22496988  .00001022  00000-0  93930-4 0  9998
2 43884  97.7112 348.6825 0011350 176.9733 183.1559 14.96928947 65022
LEMUR-2-GUSTAVO         
1 43885U 18111K   20077.54886796  .00000636  00000-0  60430-4 0  9991
2 43885  97.7104 347.0427 0011359 183.1420 176.9732 14.96881501 66766
LEMUR-2-ZO              
1 43886U 18111L   20078.05857085 -.00000120  00000-0 -53315-5 0  9993
2 43886  97.7115 347.6297 0010995 181.0819 179.0381 14.96972889 64845
LEMUR-2-NATALIEMURRAY   
1 43887U 18111M   20078.75994026  .00001001  00000-0  91783-4 0  9995
2 43887  97.7115 348.3995 0011535 175.8200 184.3120 14.97091890 66954
LEMUR-2-SARAHBETTYBOO   
1 43888U 18111N   20078.74290494  .00000368  00000-0  36894-4 0  9990
2 43888  97.7116 348.4638 0011479 177.0022 183.1271 14.97136470 66952
LEMUR-2-DAISY-HARPER    
1 43889U 18111P   20079.19025217 -.00000090  00000-0 -27489-5 0  9995
2 43889  97.7126 348.9506 0011152 174.6137 185.5207 14.97223838 67019
GRUS-1A                 
1 43890U 18111Q   20079.20173676  .00000071  00000-0  12135-4 0  9990
2 43890  97.6983 346.2014 0002870 212.4859 147.6184 14.92898993 66876
2018-111R               
1 43891U 18111R   20079.19481702  .00000170  00000-0  10098-4 0  9997
2 43891  97.2724 340.7448 0028278 107.9779 252.4544 15.23015667 68203
FLOCK 3K-3              
1 43892U 18111S   20078.77115139  .00000982  00000-0  41432-4 0  9996
2 43892  97.2739 341.3257 0025050 107.4656 252.9323 15.25326233 68205
FLOCK 3K-4              
1 43893U 18111T   20078.76572323  .00000926  00000-0  39245-4 0  9995
2 43893  97.2739 341.3327 0024963 107.0835 253.3141 15.25324635 68208
FLOCK 3K-1              
1 43894U 18111U   20078.76022607  .00001090  00000-0  45716-4 0  9994
2 43894  97.2733 341.3083 0024961 107.1624 253.2350 15.25324177 68209
FLOCK 3K-2              
1 43895U 18111V   20079.21402087  .00001511  00000-0  62270-4 0  9992
2 43895  97.2736 341.7790 0025214 105.5190 254.8835 15.25332804 68272
FLOCK 3K-6              
1 43896U 18111W   20077.76534206  .00001096  00000-0  45991-4 0  9999
2 43896  97.2736 340.3805 0023378 107.0513 253.3289 15.25324304 68059
FLOCK 3K-5              
1 43899U 18111Z   20078.48156702  .00001871  00000-0  76508-4 0  9992
2 43899  97.2738 341.1053 0023551 104.3286 256.0569 15.25331889 68167
FLOCK 3K-8              
1 43901U 18111AB  20078.21362589  .00001502  00000-0  61952-4 0  9997
2 43901  97.2734 340.8225 0023459 105.3099 255.0735 15.25331569 68129
FLOCK 3K-7              
1 43902U 18111AC  20077.48660654  .00001520  00000-0  62690-4 0  9990
2 43902  97.2737 340.1387 0023627 107.1564 253.2264 15.25330627 68018
FLOCK 3K-12             
1 43903U 18111AD  20079.24703450  .00002287  00000-0  92903-4 0  9990
2 43903  97.2735 341.8705 0023387 102.1354 258.2506 15.25330738 68280
FLOCK 3K-11             
1 43904U 18111AE  20078.78242935  .00001106  00000-0  46371-4 0  9992
2 43904  97.2739 341.4486 0023387 102.8763 257.5089 15.25322107 68210
FLOCK 3K-10             
1 43905U 18111AF  20078.77699767  .00001017  00000-0  42866-4 0  9997
2 43905  97.2738 341.4579 0023231 102.6735 257.7102 15.25321066 68219
FLOCK 3K-9              
1 43906U 18111AG  20078.20282476  .00003352  00000-0  13483-3 0  9997
2 43906  97.2738 340.8553 0023286 104.5447 255.8377 15.25337958 68126
ZACUBE-2                
1 43907U 18111AH  20079.20341662  .00000575  00000-0  26077-4 0  9990
2 43907  97.2737 341.6474 0023273 101.4686 258.9168 15.24487645 68269
LUME 1                  
1 43908U 18111AJ  20078.95492272  .00000965  00000-0  41415-4 0  9992
2 43908  97.2737 341.5212 0023072 101.9656 258.4171 15.24849356 68235
